start=new Date('2021-09-09T00:00:00.000Z').valueOf();
sats=[{"REV_AT_EPOCH":"358","CLASSIFICATION_TYPE":"U","SEMIMAJOR_AXIS":"6925.343","SITE":"AFETR","TLE_LINE2":"2 48398  53.0539 156.3026 0002305  80.5921 176.2408 15.06401812  3589","MEAN_MOTION_DOT":"-0.00024332","MEAN_MOTION_DDOT":"0.0000000000000","OBJECT_TYPE":"PAYLOAD","PERIAPSIS":"545.612","COUNTRY_CODE":"US","APOAPSIS":"548.804","NORAD_CAT_ID":"48398","MEAN_ELEMENT_THEORY":"SGP4","DECAY_DATE":null,"OBJECT_ID":"2021-038AX","ECCENTRICITY":"0.00023050","GP_ID":"184349381","MEAN_MOTION":"15.06401812","MEAN_ANOMALY":"176.2408","LAUNCH_DATE":"2021-05-04","FILE":"3111252","ARG_OF_PERICENTER":"80.5921","RA_OF_ASC_NODE":"156.3026","CENTER_NAME":"EARTH","PERIOD":"95.592","ELEMENT_SET_NO":"999","INCLINATION":"53.0539","REF_FRAME":"TEME","TIME_SYSTEM":"UTC","EPOCH":"2021-09-08T22:00:00.999936","OBJECT_NAME":"STARLINK-2588","EPHEMERIS_TYPE":"0","RCS_SIZE":"LARGE","TLE_LINE1":"1 48398U 21038AX  21251.91667824 -.00024332  00000-0 -16200-2 0  9997","BSTAR":"-0.00162000000000"},{"OBJECT_NAME":"STARLINK-2587","EPOCH":"2021-09-08T22:00:00.999936","TIME_SYSTEM":"UTC","EPHEMERIS_TYPE":"0","RCS_SIZE":"LARGE","TLE_LINE1":"1 48399U 21038AY  21251.91667824 -.00025357  00000-0 -16892-2 0  9993","BSTAR":"-0.00168920000000","ARG_OF_PERICENTER":"80.1449","FILE":"3111252","RA_OF_ASC_NODE":"156.3041","CENTER_NAME":"EARTH","INCLINATION":"53.0548","ELEMENT_SET_NO":"999","PERIOD":"95.592","REF_FRAME":"TEME","DECAY_DATE":null,"MEAN_ELEMENT_THEORY":"SGP4","NORAD_CAT_ID":"48399","APOAPSIS":"548.872","COUNTRY_CODE":"US","GP_ID":"184349891","ECCENTRICITY":"0.00024120","OBJECT_ID":"2021-038AY","MEAN_ANOMALY":"196.6732","MEAN_MOTION":"15.06403914","LAUNCH_DATE":"2021-05-04","CLASSIFICATION_TYPE":"U","SEMIMAJOR_AXIS":"6925.337","REV_AT_EPOCH":"358","MEAN_MOTION_DDOT":"0.0000000000000","TLE_LINE2":"2 48399  53.0548 156.3041 0002412  80.1449 196.6732 15.06403914  3588","MEAN_MOTION_DOT":"-0.00025357","SITE":"AFETR","PERIAPSIS":"545.531","OBJECT_TYPE":"PAYLOAD"},{"INCLINATION":"53.0543","ELEMENT_SET_NO":"999","PERIOD":"95.591","REF_FRAME":"TEME","ARG_OF_PERICENTER":"70.5022","FILE":"3111252","RA_OF_ASC_NODE":"156.3021","CENTER_NAME":"EARTH","EPHEMERIS_TYPE":"0","RCS_SIZE":"LARGE","TLE_LINE1":"1 48400U 21038AZ  21251.91667824 -.00025790  00000-0 -17179-2 0  9996","BSTAR":"-0.00171790000000","OBJECT_NAME":"STARLINK-2576","EPOCH":"2021-09-08T22:00:00.999936","TIME_SYSTEM":"UTC","MEAN_MOTION_DDOT":"0.0000000000000","MEAN_MOTION_DOT":"-0.00025790","TLE_LINE2":"2 48400  53.0543 156.3021 0002500  70.5022 226.3056 15.06416016  3589","SITE":"AFETR","PERIAPSIS":"545.433","OBJECT_TYPE":"PAYLOAD","CLASSIFICATION_TYPE":"U","SEMIMAJOR_AXIS":"6925.299","REV_AT_EPOCH":"358","MEAN_ANOMALY":"226.3056","MEAN_MOTION":"15.06416016","LAUNCH_DATE":"2021-05-04","MEAN_ELEMENT_THEORY":"SGP4","DECAY_DATE":null,"NORAD_CAT_ID":"48400","APOAPSIS":"548.896","COUNTRY_CODE":"US","ECCENTRICITY":"0.00025000","GP_ID":"184349798","OBJECT_ID":"2021-038AZ"},{"CLASSIFICATION_TYPE":"U","SEMIMAJOR_AXIS":"6925.312","REV_AT_EPOCH":"358","PERIAPSIS":"545.808","OBJECT_TYPE":"PAYLOAD","MEAN_MOTION_DDOT":"0.0000000000000","TLE_LINE2":"2 48401  53.0545 156.3086 0001977  78.1782  23.7856 15.06411810  3581","MEAN_MOTION_DOT":"-0.00030304","SITE":"AFETR","ECCENTRICITY":"0.00019770","GP_ID":"184349984","OBJECT_ID":"2021-038BA","DECAY_DATE":null,"MEAN_ELEMENT_THEORY":"SGP4","NORAD_CAT_ID":"48401","APOAPSIS":"548.546","COUNTRY_CODE":"US","LAUNCH_DATE":"2021-05-04","MEAN_ANOMALY":"23.7856","MEAN_MOTION":"15.06411810","CENTER_NAME":"EARTH","RA_OF_ASC_NODE":"156.3086","ARG_OF_PERICENTER":"78.1782","FILE":"3111252","REF_FRAME":"TEME","INCLINATION":"53.0545","ELEMENT_SET_NO":"999","PERIOD":"95.591","OBJECT_NAME":"STARLINK-2571","EPOCH":"2021-09-08T22:00:00.999936","TIME_SYSTEM":"UTC","BSTAR":"-0.00202350000000","TLE_LINE1":"1 48401U 21038BA  21251.91667824 -.00030304  00000-0 -20235-2 0  9991","RCS_SIZE":"LARGE","EPHEMERIS_TYPE":"0"},{"REF_FRAME":"TEME","ELEMENT_SET_NO":"999","PERIOD":"95.591","INCLINATION":"53.0547","CENTER_NAME":"EARTH","RA_OF_ASC_NODE":"156.3034","ARG_OF_PERICENTER":"78.3642","FILE":"3111252","TLE_LINE1":"1 48402U 21038BB  21251.91667824 -.00026652  00000-0 -17764-2 0  9996","BSTAR":"-0.00177640000000","RCS_SIZE":"LARGE","EPHEMERIS_TYPE":"0","TIME_SYSTEM":"UTC","OBJECT_NAME":"STARLINK-2560","EPOCH":"2021-09-08T22:00:00.999936","OBJECT_TYPE":"PAYLOAD","PERIAPSIS":"545.552","MEAN_MOTION_DDOT":"0.0000000000000","MEAN_MOTION_DOT":"-0.00026652","TLE_LINE2":"2 48402  53.0547 156.3034 0002349  78.3642 238.4760 15.06411416  3589","SITE":"AFETR","CLASSIFICATION_TYPE":"U","SEMIMAJOR_AXIS":"6925.314","REV_AT_EPOCH":"358","LAUNCH_DATE":"2021-05-04","MEAN_MOTION":"15.06411416","MEAN_ANOMALY":"238.4760","OBJECT_ID":"2021-038BB","GP_ID":"184349705","ECCENTRICITY":"0.00023490","COUNTRY_CODE":"US","DECAY_DATE":null,"MEAN_ELEMENT_THEORY":"SGP4","NORAD_CAT_ID":"48402","APOAPSIS":"548.805"},{"FILE":"3111252","ARG_OF_PERICENTER":"74.3501","RA_OF_ASC_NODE":"156.3010","CENTER_NAME":"EARTH","PERIOD":"95.591","ELEMENT_SET_NO":"999","INCLINATION":"53.0535","REF_FRAME":"TEME","TIME_SYSTEM":"UTC","EPOCH":"2021-09-08T22:00:00.999936","OBJECT_NAME":"STARLINK-2561","EPHEMERIS_TYPE":"0","RCS_SIZE":"LARGE","TLE_LINE1":"1 48403U 21038BC  21251.91667824 -.00027928  00000-0 -18625-2 0  9991","BSTAR":"-0.00186250000000","REV_AT_EPOCH":"358","SEMIMAJOR_AXIS":"6925.303","CLASSIFICATION_TYPE":"U","TLE_LINE2":"2 48403  53.0535 156.3010 0002340  74.3501 262.4479 15.06414720  3587","SITE":"AFETR","MEAN_MOTION_DOT":"-0.00027928","MEAN_MOTION_DDOT":"0.0000000000000","OBJECT_TYPE":"PAYLOAD","PERIAPSIS":"545.548","COUNTRY_CODE":"US","APOAPSIS":"548.789","NORAD_CAT_ID":"48403","MEAN_ELEMENT_THEORY":"SGP4","DECAY_DATE":null,"OBJECT_ID":"2021-038BC","ECCENTRICITY":"0.00023400","GP_ID":"184349570","MEAN_MOTION":"15.06414720","MEAN_ANOMALY":"262.4479","LAUNCH_DATE":"2021-05-04"},{"REF_FRAME":"TEME","INCLINATION":"53.0550","PERIOD":"95.592","ELEMENT_SET_NO":"999","CENTER_NAME":"EARTH","RA_OF_ASC_NODE":"156.3039","FILE":"3111252","ARG_OF_PERICENTER":"78.3005","TLE_LINE1":"1 48404U 21038BD  21251.91667824 -.00029148  00000-0 -19456-2 0  9991","BSTAR":"-0.00194560000000","RCS_SIZE":"LARGE","EPHEMERIS_TYPE":"0","EPOCH":"2021-09-08T22:00:00.999936","OBJECT_NAME":"STARLINK-2593","TIME_SYSTEM":"UTC","PERIAPSIS":"545.648","OBJECT_TYPE":"PAYLOAD","SITE":"AFETR","TLE_LINE2":"2 48404  53.0550 156.3039 0002243  78.3005 278.5297 15.06403913  3589","MEAN_MOTION_DOT":"-0.00029148","MEAN_MOTION_DDOT":"0.0000000000000","REV_AT_EPOCH":"358","SEMIMAJOR_AXIS":"6925.337","CLASSIFICATION_TYPE":"U","LAUNCH_DATE":"2021-05-04","MEAN_ANOMALY":"278.5297","MEAN_MOTION":"15.06403913","ECCENTRICITY":"0.00022430","GP_ID":"184349476","OBJECT_ID":"2021-038BD","APOAPSIS":"548.755","NORAD_CAT_ID":"48404","DECAY_DATE":null,"MEAN_ELEMENT_THEORY":"SGP4","COUNTRY_CODE":"US"},{"TLE_LINE2":"2 48405  53.0552 156.3032 0002229  78.1046 298.7228 15.06415136  3591","MEAN_MOTION_DOT":"-0.00031314","SITE":"AFETR","MEAN_MOTION_DDOT":"0.0000000000000","OBJECT_TYPE":"PAYLOAD","PERIAPSIS":"545.624","REV_AT_EPOCH":"359","SEMIMAJOR_AXIS":"6925.302","CLASSIFICATION_TYPE":"U","MEAN_MOTION":"15.06415136","MEAN_ANOMALY":"298.7228","LAUNCH_DATE":"2021-05-04","COUNTRY_CODE":"US","NORAD_CAT_ID":"48405","APOAPSIS":"548.711","DECAY_DATE":null,"MEAN_ELEMENT_THEORY":"SGP4","OBJECT_ID":"2021-038BE","ECCENTRICITY":"0.00022290","GP_ID":"184349664","PERIOD":"95.591","ELEMENT_SET_NO":"999","INCLINATION":"53.0552","REF_FRAME":"TEME","FILE":"3111252","ARG_OF_PERICENTER":"78.1046","RA_OF_ASC_NODE":"156.3032","CENTER_NAME":"EARTH","EPHEMERIS_TYPE":"0","TLE_LINE1":"1 48405U 21038BE  21251.91667824 -.00031314  00000-0 -20916-2 0  9993","BSTAR":"-0.00209160000000","RCS_SIZE":"LARGE","TIME_SYSTEM":"UTC","EPOCH":"2021-09-08T22:00:00.999936","OBJECT_NAME":"STARLINK-2570"},{"BSTAR":"-0.00220900000000","TLE_LINE1":"1 48406U 21038BF  21251.91667824 -.00033036  00000-0 -22090-2 0  9992","RCS_SIZE":"LARGE","EPHEMERIS_TYPE":"0","TIME_SYSTEM":"UTC","EPOCH":"2021-09-08T22:00:00.999936","OBJECT_NAME":"STARLINK-2568","REF_FRAME":"TEME","PERIOD":"95.592","ELEMENT_SET_NO":"999","INCLINATION":"53.0546","CENTER_NAME":"EARTH","RA_OF_ASC_NODE":"156.3012","FILE":"3111252","ARG_OF_PERICENTER":"76.0980","LAUNCH_DATE":"2021-05-04","MEAN_MOTION":"15.06402366","MEAN_ANOMALY":"320.7257","OBJECT_ID":"2021-038BF","ECCENTRICITY":"0.00023310","GP_ID":"184349382","COUNTRY_CODE":"US","APOAPSIS":"548.821","NORAD_CAT_ID":"48406","DECAY_DATE":null,"MEAN_ELEMENT_THEORY":"SGP4","OBJECT_TYPE":"PAYLOAD","PERIAPSIS":"545.592","TLE_LINE2":"2 48406  53.0546 156.3012 0002331  76.0980 320.7257 15.06402366  3590","MEAN_MOTION_DOT":"-0.00033036","SITE":"AFETR","MEAN_MOTION_DDOT":"0.0000000000000","REV_AT_EPOCH":"359","CLASSIFICATION_TYPE":"U","SEMIMAJOR_AXIS":"6925.341"},{"OBJECT_TYPE":"PAYLOAD","PERIAPSIS":"545.569","MEAN_MOTION_DDOT":"0.0000000000000","TLE_LINE2":"2 48407  53.0468 156.3411 0002229  83.7145 333.1604 15.06433002  3596","MEAN_MOTION_DOT":"-0.00075703","SITE":"AFETR","SEMIMAJOR_AXIS":"6925.247","CLASSIFICATION_TYPE":"U","REV_AT_EPOCH":"359","LAUNCH_DATE":"2021-05-04","MEAN_MOTION":"15.06433002","MEAN_ANOMALY":"333.1604","OBJECT_ID":"2021-038BG","ECCENTRICITY":"0.00022290","GP_ID":"184349892","COUNTRY_CODE":"US","MEAN_ELEMENT_THEORY":"SGP4","DECAY_DATE":null,"NORAD_CAT_ID":"48407","APOAPSIS":"548.656","REF_FRAME":"TEME","ELEMENT_SET_NO":"999","PERIOD":"95.590","INCLINATION":"53.0468","CENTER_NAME":"EARTH","RA_OF_ASC_NODE":"156.3411","ARG_OF_PERICENTER":"83.7145","FILE":"3111252","BSTAR":"-0.00511280000000","TLE_LINE1":"1 48407U 21038BG  21251.91667824 -.00075703  00000-0 -51128-2 0  9994","RCS_SIZE":"LARGE","EPHEMERIS_TYPE":"0","TIME_SYSTEM":"UTC","OBJECT_NAME":"STARLINK-2595","EPOCH":"2021-09-08T22:00:00.999936"}];
